[{"OBJECT_NAME":"COSMOS 1812","OBJECT_ID":"1987-003A","EPOCH":"2026-03-03T14:49:59.253024","MEAN_MOTION":16.24359428,"ECCENTRICITY":0.00078955,"INCLINATION":82.4711,"RA_OF_ASC_NODE":202.5548,"ARG_OF_PERICENTER":287.2968,"MEAN_ANOMALY":72.7458,"EPHEMERIS_TYPE":0,"CLASSIFICATION_TYPE":"U","NORAD_CAT_ID":17295,"ELEMENT_SET_NO":999,"REV_AT_EPOCH":14350,"BSTAR":0.00077782222,"MEAN_MOTION_DOT":0.0207464,"MEAN_MOTION_DDOT":-1.218698e-6},{"OBJECT_NAME":"IRIDIUM 51","OBJECT_ID":"1998-018A","EPOCH":"2026-03-03T15:06:02.333952","MEAN_MOTION":15.9929384,"ECCENTRICITY":0.00179146,"INCLINATION":86.3532,"RA_OF_ASC_NODE":283.8213,"ARG_OF_PERICENTER":308.4745,"MEAN_ANOMALY":51.4933,"EPHEMERIS_TYPE":0,"CLASSIFICATION_TYPE":"U","NORAD_CAT_ID":25262,"ELEMENT_SET_NO":999,"REV_AT_EPOCH":48738,"BSTAR":0.0013682785,"MEAN_MOTION_DOT":0.00675492,"MEAN_MOTION_DDOT":0.00020260366},{"OBJECT_NAME":"CZ-2D DEB","OBJECT_ID":"2005-024J","EPOCH":"2026-03-01T21:43:49.210752","MEAN_MOTION":15.92111318,"ECCENTRICITY":0.0004089,"INCLINATION":97.1482,"RA_OF_ASC_NODE":103.0739,"ARG_OF_PERICENTER":145.2826,"MEAN_ANOMALY":214.8716,"EPHEMERIS_TYPE":0,"CLASSIFICATION_TYPE":"U","NORAD_CAT_ID":31409,"ELEMENT_SET_NO":999,"REV_AT_EPOCH":11718,"BSTAR":0.00072484,"MEAN_MOTION_DOT":0.0023946,"MEAN_MOTION_DDOT":2.3346e-5},{"OBJECT_NAME":"ZIYUAN 3-01 (ZY 3-01)","OBJECT_ID":"2012-001A","EPOCH":"2026-03-03T17:55:52.573728","MEAN_MOTION":15.97586704,"ECCENTRICITY":0.0001845,"INCLINATION":97.1548,"RA_OF_ASC_NODE":137.2939,"ARG_OF_PERICENTER":247.4015,"MEAN_ANOMALY":112.7067,"EPHEMERIS_TYPE":0,"CLASSIFICATION_TYPE":"U","NORAD_CAT_ID":38046,"ELEMENT_SET_NO":999,"REV_AT_EPOCH":78775,"BSTAR":0.0010557,"MEAN_MOTION_DOT":0.00466524,"MEAN_MOTION_DDOT":9.2701e-5},{"OBJECT_NAME":"HUMSAT-D","OBJECT_ID":"2013-066T","EPOCH":"2026-03-03T13:32:47.525280","MEAN_MOTION":15.99754592,"ECCENTRICITY":0.00071118,"INCLINATION":97.4829,"RA_OF_ASC_NODE":75.1164,"ARG_OF_PERICENTER":164.3935,"MEAN_ANOMALY":195.7564,"EPHEMERIS_TYPE":0,"CLASSIFICATION_TYPE":"U","NORAD_CAT_ID":39433,"ELEMENT_SET_NO":999,"REV_AT_EPOCH":67048,"BSTAR":0.0021153562,"MEAN_MOTION_DOT":0.01051054,"MEAN_MOTION_DDOT":0.00055125127},{"OBJECT_NAME":"H-2A DEB","OBJECT_ID":"2018-084E","EPOCH":"2026-03-03T14:45:18.073728","MEAN_MOTION":15.98985857,"ECCENTRICITY":0.00033135,"INCLINATION":98.0066,"RA_OF_ASC_NODE":278.4576,"ARG_OF_PERICENTER":299.2021,"MEAN_ANOMALY":60.8923,"EPHEMERIS_TYPE":0,"CLASSIFICATION_TYPE":"U","NORAD_CAT_ID":43675,"ELEMENT_SET_NO":999,"REV_AT_EPOCH":40215,"BSTAR":0.0025824993,"MEAN_MOTION_DOT":0.01222586,"MEAN_MOTION_DDOT":0.00077136766},{"OBJECT_NAME":"SPACEBEE-7","OBJECT_ID":"2018-099BL","EPOCH":"2026-03-03T04:37:27.270336","MEAN_MOTION":16.04143881,"ECCENTRICITY":0.00081972,"INCLINATION":97.4402,"RA_OF_ASC_NODE":148.5792,"ARG_OF_PERICENTER":271.8568,"MEAN_ANOMALY":88.1774,"EPHEMERIS_TYPE":0,"CLASSIFICATION_TYPE":"U","NORAD_CAT_ID":43816,"ELEMENT_SET_NO":999,"REV_AT_EPOCH":39817,"BSTAR":0.0019162118,"MEAN_MOTION_DOT":0.01223781,"MEAN_MOTION_DDOT":0.00084947949},{"OBJECT_NAME":"STARLINK-1112","OBJECT_ID":"2020-001M","EPOCH":"2026-03-03T13:51:44.102592","MEAN_MOTION":16.058799,"ECCENTRICITY":0.00040197,"INCLINATION":53.034,"RA_OF_ASC_NODE":272.7953,"ARG_OF_PERICENTER":266.2978,"MEAN_ANOMALY":93.7594,"EPHEMERIS_TYPE":0,"CLASSIFICATION_TYPE":"U","NORAD_CAT_ID":44925,"ELEMENT_SET_NO":999,"REV_AT_EPOCH":34034,"BSTAR":0.00083877684,"MEAN_MOTION_DOT":0.00621977,"MEAN_MOTION_DDOT":0.00020023052},{"OBJECT_NAME":"STARLINK-1210","OBJECT_ID":"2020-012AF","EPOCH":"2026-03-03T18:48:05.583744","MEAN_MOTION":16.36592232,"ECCENTRICITY":0.0006102,"INCLINATION":52.9976,"RA_OF_ASC_NODE":288.6877,"ARG_OF_PERICENTER":292.3798,"MEAN_ANOMALY":67.66,"EPHEMERIS_TYPE":0,"CLASSIFICATION_TYPE":"U","NORAD_CAT_ID":45207,"ELEMENT_SET_NO":999,"REV_AT_EPOCH":33597,"BSTAR":0.00068555,"MEAN_MOTION_DOT":0.06351918,"MEAN_MOTION_DDOT":1.23e-5},{"OBJECT_NAME":"STARLINK-1484","OBJECT_ID":"2020-038AC","EPOCH":"2026-03-03T16:00:01.999584","MEAN_MOTION":15.97595679,"ECCENTRICITY":0.00070757,"INCLINATION":52.9983,"RA_OF_ASC_NODE":87.7366,"ARG_OF_PERICENTER":36.0536,"MEAN_ANOMALY":59.2646,"EPHEMERIS_TYPE":0,"CLASSIFICATION_TYPE":"U","NORAD_CAT_ID":45756,"ELEMENT_SET_NO":999,"REV_AT_EPOCH":602,"BSTAR":0.00083200925,"MEAN_MOTION_DOT":0.00379564,"MEAN_MOTION_DDOT":7.0290776e-5},{"OBJECT_NAME":"STARLINK-1601","OBJECT_ID":"2020-057D","EPOCH":"2026-03-03T14:19:18.722208","MEAN_MOTION":16.27230128,"ECCENTRICITY":0.0007153,"INCLINATION":53.029,"RA_OF_ASC_NODE":285.6815,"ARG_OF_PERICENTER":261.469,"MEAN_ANOMALY":98.554,"EPHEMERIS_TYPE":0,"CLASSIFICATION_TYPE":"U","NORAD_CAT_ID":46120,"ELEMENT_SET_NO":999,"REV_AT_EPOCH":30724,"BSTAR":0.0010947586,"MEAN_MOTION_DOT":0.03993572,"MEAN_MOTION_DDOT":1.2002534e-5},{"OBJECT_NAME":"STARLINK-1723","OBJECT_ID":"2020-062J","EPOCH":"2026-03-03T15:30:54.650304","MEAN_MOTION":16.17129904,"ECCENTRICITY":0.00063126,"INCLINATION":53.0368,"RA_OF_ASC_NODE":353.1909,"ARG_OF_PERICENTER":201.0538,"MEAN_ANOMALY":159.024,"EPHEMERIS_TYPE":0,"CLASSIFICATION_TYPE":"U","NORAD_CAT_ID":46333,"ELEMENT_SET_NO":999,"REV_AT_EPOCH":30410,"BSTAR":0.0013747685,"MEAN_MOTION_DOT":0.02021133,"MEAN_MOTION_DDOT":0.0045736599},{"OBJECT_NAME":"STARLINK-1738","OBJECT_ID":"2020-062M","EPOCH":"2026-03-03T16:00:01.999584","MEAN_MOTION":15.99937621,"ECCENTRICITY":0.00051733,"INCLINATION":53.0282,"RA_OF_ASC_NODE":311.5301,"ARG_OF_PERICENTER":142.0345,"MEAN_ANOMALY":47.3407,"EPHEMERIS_TYPE":0,"CLASSIFICATION_TYPE":"U","NORAD_CAT_ID":46336,"ELEMENT_SET_NO":999,"REV_AT_EPOCH":595,"BSTAR":0.0013160245,"MEAN_MOTION_DOT":0.00685523,"MEAN_MOTION_DDOT":0.00022336101},{"OBJECT_NAME":"STARLINK-1687","OBJECT_ID":"2020-070K","EPOCH":"2026-03-03T16:14:31.358976","MEAN_MOTION":16.18037847,"ECCENTRICITY":0.00100646,"INCLINATION":53.0287,"RA_OF_ASC_NODE":121.496,"ARG_OF_PERICENTER":4.2049,"MEAN_ANOMALY":355.9071,"EPHEMERIS_TYPE":0,"CLASSIFICATION_TYPE":"U","NORAD_CAT_ID":46541,"ELEMENT_SET_NO":999,"REV_AT_EPOCH":29974,"BSTAR":0.0013681728,"MEAN_MOTION_DOT":0.02360535,"MEAN_MOTION_DDOT":1.1788863e-5},{"OBJECT_NAME":"STARLINK-1712","OBJECT_ID":"2020-070BB","EPOCH":"2026-03-03T16:00:01.999584","MEAN_MOTION":15.9523242,"ECCENTRICITY":0.00070108,"INCLINATION":53.03,"RA_OF_ASC_NODE":111.3749,"ARG_OF_PERICENTER":339.9349,"MEAN_ANOMALY":23.3353,"EPHEMERIS_TYPE":0,"CLASSIFICATION_TYPE":"U","NORAD_CAT_ID":46581,"ELEMENT_SET_NO":999,"REV_AT_EPOCH":589,"BSTAR":0.0013493302,"MEAN_MOTION_DOT":0.00541708,"MEAN_MOTION_DDOT":0.00013124234},{"OBJECT_NAME":"STARLINK-1848","OBJECT_ID":"2020-074B","EPOCH":"2026-03-03T19:13:37.211232","MEAN_MOTION":16.3459686,"ECCENTRICITY":0.0007261,"INCLINATION":53.021,"RA_OF_ASC_NODE":280.8289,"ARG_OF_PERICENTER":260.1263,"MEAN_ANOMALY":99.8961,"EPHEMERIS_TYPE":0,"CLASSIFICATION_TYPE":"U","NORAD_CAT_ID":46740,"ELEMENT_SET_NO":999,"REV_AT_EPOCH":29672,"BSTAR":0.00090214,"MEAN_MOTION_DOT":0.06749356,"MEAN_MOTION_DDOT":1.2196e-5}]
